{"fetched_at":"2026-07-10T18:08:14.252Z","source":"https://celestrak.org/NORAD/elements/gp.php?NAME=HAWK&FORMAT=JSON","constellation":"hawkeye-360","records":[{"OBJECT_NAME":"HAWK-A","OBJECT_ID":"2018-099H","EPOCH":"2026-07-10T02:53:03.016320","CLASSIFICATION_TYPE":"U","MEAN_MOTION":15.24923091,"ECCENTRICITY":0.00342021,"INCLINATION":97.3904,"RA_OF_ASC_NODE":243.059,"ARG_OF_PERICENTER":201.9017,"MEAN_ANOMALY":158.0761,"EPHEMERIS_TYPE":0,"NORAD_CAT_ID":43765,"ELEMENT_SET_NO":999,"REV_AT_EPOCH":41659,"BSTAR":0.00018794947,"MEAN_MOTION_DOT":0.00004682,"MEAN_MOTION_DDOT":0},{"OBJECT_NAME":"HAWK-B","OBJECT_ID":"2018-099AN","EPOCH":"2026-07-10T02:29:02.568480","CLASSIFICATION_TYPE":"U","MEAN_MOTION":15.23078236,"ECCENTRICITY":0.00308945,"INCLINATION":97.3952,"RA_OF_ASC_NODE":242.4091,"ARG_OF_PERICENTER":220.3198,"MEAN_ANOMALY":139.5749,"EPHEMERIS_TYPE":0,"NORAD_CAT_ID":43794,"ELEMENT_SET_NO":999,"REV_AT_EPOCH":41652,"BSTAR":0.00017987618,"MEAN_MOTION_DOT":0.00004222,"MEAN_MOTION_DDOT":0},{"OBJECT_NAME":"HAWK-C","OBJECT_ID":"2018-099AT","EPOCH":"2026-07-10T01:04:01.344000","CLASSIFICATION_TYPE":"U","MEAN_MOTION":15.28438375,"ECCENTRICITY":0.00397832,"INCLINATION":97.3884,"RA_OF_ASC_NODE":244.0095,"ARG_OF_PERICENTER":202.1098,"MEAN_ANOMALY":157.8428,"EPHEMERIS_TYPE":0,"NORAD_CAT_ID":43799,"ELEMENT_SET_NO":999,"REV_AT_EPOCH":41740,"BSTAR":0.00021155374,"MEAN_MOTION_DOT":0.00005917,"MEAN_MOTION_DDOT":0},{"OBJECT_NAME":"HAWK-2C","OBJECT_ID":"2021-006CT","EPOCH":"2026-07-10T04:00:25.026048","CLASSIFICATION_TYPE":"U","MEAN_MOTION":15.34948446,"ECCENTRICITY":0.00085524,"INCLINATION":97.2272,"RA_OF_ASC_NODE":235.0203,"ARG_OF_PERICENTER":115.2036,"MEAN_ANOMALY":245.0096,"EPHEMERIS_TYPE":0,"NORAD_CAT_ID":47502,"ELEMENT_SET_NO":999,"REV_AT_EPOCH":30302,"BSTAR":0.00014382955,"MEAN_MOTION_DOT":0.00004802,"MEAN_MOTION_DDOT":0},{"OBJECT_NAME":"HAWK-2A","OBJECT_ID":"2021-006CW","EPOCH":"2026-07-10T04:03:41.431392","CLASSIFICATION_TYPE":"U","MEAN_MOTION":15.34963523,"ECCENTRICITY":0.00080494,"INCLINATION":97.2315,"RA_OF_ASC_NODE":235.7136,"ARG_OF_PERICENTER":118.384,"MEAN_ANOMALY":241.8217,"EPHEMERIS_TYPE":0,"NORAD_CAT_ID":47505,"ELEMENT_SET_NO":999,"REV_AT_EPOCH":30302,"BSTAR":0.00014559186,"MEAN_MOTION_DOT":0.00004863,"MEAN_MOTION_DDOT":0},{"OBJECT_NAME":"HAWK-2B","OBJECT_ID":"2021-006CZ","EPOCH":"2026-07-10T02:21:06.169248","CLASSIFICATION_TYPE":"U","MEAN_MOTION":15.35088886,"ECCENTRICITY":0.00086138,"INCLINATION":97.2185,"RA_OF_ASC_NODE":233.9393,"ARG_OF_PERICENTER":116.9526,"MEAN_ANOMALY":243.2599,"EPHEMERIS_TYPE":0,"NORAD_CAT_ID":47508,"ELEMENT_SET_NO":999,"REV_AT_EPOCH":30301,"BSTAR":0.00016003192,"MEAN_MOTION_DOT":0.00005376,"MEAN_MOTION_DDOT":0},{"OBJECT_NAME":"HAWK-3B","OBJECT_ID":"2021-059BE","EPOCH":"2026-07-10T00:09:47.277216","CLASSIFICATION_TYPE":"U","MEAN_MOTION":15.71525502,"ECCENTRICITY":0.00040899,"INCLINATION":97.6649,"RA_OF_ASC_NODE":29.9062,"ARG_OF_PERICENTER":217.8107,"MEAN_ANOMALY":142.2868,"EPHEMERIS_TYPE":0,"NORAD_CAT_ID":48931,"ELEMENT_SET_NO":999,"REV_AT_EPOCH":28143,"BSTAR":0.00027709148,"MEAN_MOTION_DOT":0.00035395,"MEAN_MOTION_DDOT":0},{"OBJECT_NAME":"HAWK-3C","OBJECT_ID":"2021-059BX","EPOCH":"2026-07-10T00:09:20.910528","CLASSIFICATION_TYPE":"U","MEAN_MOTION":15.71533406,"ECCENTRICITY":0.00044041,"INCLINATION":97.6774,"RA_OF_ASC_NODE":35.6306,"ARG_OF_PERICENTER":218.4113,"MEAN_ANOMALY":141.6836,"EPHEMERIS_TYPE":0,"NORAD_CAT_ID":48948,"ELEMENT_SET_NO":999,"REV_AT_EPOCH":28143,"BSTAR":0.00029488046,"MEAN_MOTION_DOT":0.00037702,"MEAN_MOTION_DDOT":0},{"OBJECT_NAME":"HAWK-3A","OBJECT_ID":"2021-059CG","EPOCH":"2026-07-10T00:09:11.136960","CLASSIFICATION_TYPE":"U","MEAN_MOTION":15.71532739,"ECCENTRICITY":0.00043448,"INCLINATION":97.6711,"RA_OF_ASC_NODE":32.8165,"ARG_OF_PERICENTER":219.9841,"MEAN_ANOMALY":140.1101,"EPHEMERIS_TYPE":0,"NORAD_CAT_ID":48957,"ELEMENT_SET_NO":999,"REV_AT_EPOCH":28143,"BSTAR":0.00029181336,"MEAN_MOTION_DOT":0.00037305,"MEAN_MOTION_DDOT":0},{"OBJECT_NAME":"HAWK-5C","OBJECT_ID":"2022-057Y","EPOCH":"2026-07-09T20:54:51.613344","CLASSIFICATION_TYPE":"U","MEAN_MOTION":15.52200356,"ECCENTRICITY":0.00033093,"INCLINATION":97.661,"RA_OF_ASC_NODE":352.0184,"ARG_OF_PERICENTER":7.5352,"MEAN_ANOMALY":352.5949,"EPHEMERIS_TYPE":0,"NORAD_CAT_ID":52754,"ELEMENT_SET_NO":999,"REV_AT_EPOCH":22986,"BSTAR":0.0002408882,"MEAN_MOTION_DOT":0.00014501,"MEAN_MOTION_DDOT":0},{"OBJECT_NAME":"HAWK-5B","OBJECT_ID":"2022-057AA","EPOCH":"2026-07-09T17:48:55.177056","CLASSIFICATION_TYPE":"U","MEAN_MOTION":15.52193096,"ECCENTRICITY":0.00039782,"INCLINATION":97.6627,"RA_OF_ASC_NODE":350.2329,"ARG_OF_PERICENTER":354.7757,"MEAN_ANOMALY":5.3452,"EPHEMERIS_TYPE":0,"NORAD_CAT_ID":52756,"ELEMENT_SET_NO":999,"REV_AT_EPOCH":22984,"BSTAR":0.00022497473,"MEAN_MOTION_DOT":0.00013532,"MEAN_MOTION_DDOT":0},{"OBJECT_NAME":"HAWK-5A","OBJECT_ID":"2022-057AB","EPOCH":"2026-07-10T06:11:17.726784","CLASSIFICATION_TYPE":"U","MEAN_MOTION":15.52207867,"ECCENTRICITY":0.00038367,"INCLINATION":97.6616,"RA_OF_ASC_NODE":351.613,"ARG_OF_PERICENTER":357.686,"MEAN_ANOMALY":2.4373,"EPHEMERIS_TYPE":0,"NORAD_CAT_ID":52757,"ELEMENT_SET_NO":999,"REV_AT_EPOCH":22992,"BSTAR":0.00022031665,"MEAN_MOTION_DOT":0.00013256,"MEAN_MOTION_DDOT":0},{"OBJECT_NAME":"HAWK-6B","OBJECT_ID":"2023-011A","EPOCH":"2026-07-10T03:11:51.887616","CLASSIFICATION_TYPE":"U","MEAN_MOTION":15.23126702,"ECCENTRICITY":0.00033829,"INCLINATION":40.497,"RA_OF_ASC_NODE":218.2156,"ARG_OF_PERICENTER":213.8649,"MEAN_ANOMALY":146.1945,"EPHEMERIS_TYPE":0,"NORAD_CAT_ID":55324,"ELEMENT_SET_NO":999,"REV_AT_EPOCH":19134,"BSTAR":0.00013693848,"MEAN_MOTION_DOT":0.00003105,"MEAN_MOTION_DDOT":0},{"OBJECT_NAME":"HAWK-6C","OBJECT_ID":"2023-011C","EPOCH":"2026-07-10T04:45:23.044896","CLASSIFICATION_TYPE":"U","MEAN_MOTION":15.23128453,"ECCENTRICITY":0.00039045,"INCLINATION":40.4958,"RA_OF_ASC_NODE":214.672,"ARG_OF_PERICENTER":203.6863,"MEAN_ANOMALY":156.3767,"EPHEMERIS_TYPE":0,"NORAD_CAT_ID":55326,"ELEMENT_SET_NO":999,"REV_AT_EPOCH":19136,"BSTAR":0.00014521455,"MEAN_MOTION_DOT":0.00003305,"MEAN_MOTION_DDOT":0},{"OBJECT_NAME":"HAWK-6A","OBJECT_ID":"2023-011D","EPOCH":"2026-07-09T13:01:15.484512","CLASSIFICATION_TYPE":"U","MEAN_MOTION":15.23123028,"ECCENTRICITY":0.0003302,"INCLINATION":40.4966,"RA_OF_ASC_NODE":220.1247,"ARG_OF_PERICENTER":196.9999,"MEAN_ANOMALY":163.07,"EPHEMERIS_TYPE":0,"NORAD_CAT_ID":55327,"ELEMENT_SET_NO":999,"REV_AT_EPOCH":19126,"BSTAR":0.00012665858,"MEAN_MOTION_DOT":0.00002857,"MEAN_MOTION_DDOT":0},{"OBJECT_NAME":"HAWK-7A","OBJECT_ID":"2023-054P","EPOCH":"2026-07-09T17:04:11.233632","CLASSIFICATION_TYPE":"U","MEAN_MOTION":15.27595507,"ECCENTRICITY":0.00020321,"INCLINATION":97.2676,"RA_OF_ASC_NODE":77.4761,"ARG_OF_PERICENTER":358.9659,"MEAN_ANOMALY":1.1576,"EPHEMERIS_TYPE":0,"NORAD_CAT_ID":56191,"ELEMENT_SET_NO":999,"REV_AT_EPOCH":18046,"BSTAR":0.00014578753,"MEAN_MOTION_DOT":0.00003861,"MEAN_MOTION_DDOT":0}]}
